[
  {
    "model": "backend.address",
    "pk": "592b74ad-4799-54b1-b9c6-fc91fff1f2ee",
    "fields": {
      "user": 2,
      "address_type": "user",
      "region": "Śląskie",
      "zip_code": "42-690",
      "city": "Hanusek",
      "street": "Chrobrego",
      "number": "103",
      "apartment": null
    }
  },
  {
    "model": "backend.address",
    "pk": "48cd30c1-d905-54f7-8afe-68762b88cf31",
    "fields": {
      "user": 2,
      "address_type": "company",
      "region": "Śląskie",
      "zip_code": "42-690",
      "city": "Hanusek",
      "street": "Chrobrego",
      "number": "103",
      "apartment": null
    }
  },
  {
    "model": "backend.address",
    "pk": "c2b8d87d-8aac-501b-abba-6f3bfc421f38",
    "fields": {
      "user": 2,
      "address_type": "client",
      "region": "Śląskie",
      "zip_code": "40-074",
      "city": "Katowice",
      "street": "Raciborska",
      "number": "22",
      "apartment": "14b"
    }
  },
  {
    "model": "backend.address",
    "pk": "3a2268f2-bdf5-5237-91e1-3ab0d98da35f",
    "fields": {
      "user": 2,
      "address_type": "client",
      "region": "Mazowieckie",
      "zip_code": "00-123",
      "city": "Warszawa",
      "street": "Nowowiejska",
      "number": "20",
      "apartment": "5a"
    }
  },
  {
    "model": "backend.address",
    "pk": "7069df68-2c60-59cb-82cd-bdf2bfc50acc",
    "fields": {
      "user": 2,
      "address_type": "company",
      "region": "Pomorskie",
      "zip_code": "80-001",
      "city": "Gdańsk",
      "street": "Szeroka",
      "number": "55",
      "apartment": null
    }
  },
  {
    "model": "backend.address",
    "pk": "442c8eee-67ff-5e78-a5d3-556bf17a2f33",
    "fields": {
      "user": 2,
      "address_type": "client",
      "region": "Wielkopolskie",
      "zip_code": "61-001",
      "city": "Poznań",
      "street": "Jeżycka",
      "number": "12",
      "apartment": "3b"
    }
  },
  {
    "model": "backend.address",
    "pk": "a4e10e75-8b85-5546-a18b-76ee7e1db192",
    "fields": {
      "user": 2,
      "address_type": "client",
      "region": "Małopolskie",
      "zip_code": "31-456",
      "city": "Kraków",
      "street": "Floriańska",
      "number": "15",
      "apartment": "7"
    }
  },
  {
    "model": "backend.address",
    "pk": "9c619b87-98ed-5fa8-9fe7-0e24b7e5a579",
    "fields": {
      "user": 2,
      "address_type": "client",
      "region": "Lubelskie",
      "zip_code": "20-012",
      "city": "Lublin",
      "street": "Krakowskie Przedmieście",
      "number": "8",
      "apartment": null
    }
  },
  {
    "model": "backend.address",
    "pk": "7c8e03c3-b117-5e70-b17a-b788a7572ab4",
    "fields": {
      "user": 2,
      "address_type": "client",
      "region": "Dolnośląskie",
      "zip_code": "50-200",
      "city": "Wrocław",
      "street": "Świdnicka",
      "number": "25",
      "apartment": "2"
    }
  },
  {
    "model": "backend.address",
    "pk": "d9381eea-2b47-50ee-9316-520b747882d2",
    "fields": {
      "user": 2,
      "address_type": "client",
      "region": "Łódzkie",
      "zip_code": "90-001",
      "city": "Łódź",
      "street": "Piotrkowska",
      "number": "100",
      "apartment": "12"
    }
  },
  {
    "model": "backend.address",
    "pk": "664be550-d455-5c1b-8143-82741059dd19",
    "fields": {
      "user": 2,
      "address_type": "client",
      "region": "Kujawsko-Pomorskie",
      "zip_code": "85-070",
      "city": "Bydgoszcz",
      "street": "Gdańska",
      "number": "5",
      "apartment": null
    }
  },
  {
    "model": "backend.address",
    "pk": "48f5f7ac-4641-5d58-9ea6-59072f03fb5d",
    "fields": {
      "user": 2,
      "address_type": "client",
      "region": "Podkarpackie",
      "zip_code": "35-001",
      "city": "Rzeszów",
      "street": "3 Maja",
      "number": "9",
      "apartment": "4"
    }
  },
  {
    "model": "backend.address",
    "pk": "5ef179da-7e8e-5582-b91e-65c2e1782fd6",
    "fields": {
      "user": 2,
      "address_type": "client",
      "region": "Zachodniopomorskie",
      "zip_code": "70-001",
      "city": "Szczecin",
      "street": "Księcia Bogusława X",
      "number": "30",
      "apartment": null
    }
  },
  {
    "model": "backend.address",
    "pk": "cebbdd5b-e4aa-524b-b2b5-83acc361aad1",
    "fields": {
      "user": 2,
      "address_type": "client",
      "region": "Świętokrzyskie",
      "zip_code": "25-001",
      "city": "Kielce",
      "street": "Sienkiewicza",
      "number": "45",
      "apartment": "1"
    }
  },
  {
    "model": "backend.address",
    "pk": "5e38738d-e24a-5924-8da3-b6b59a2d46a4",
    "fields": {
      "user": 2,
      "address_type": "client",
      "region": "Opolskie",
      "zip_code": "45-001",
      "city": "Opole",
      "street": "Ozimska",
      "number": "12",
      "apartment": "6"
    }
  },
  {
    "model": "backend.address",
    "pk": "9c00026d-e550-5166-a319-dde732beb1e3",
    "fields": {
      "user": 2,
      "address_type": "client",
      "region": "Podlaskie",
      "zip_code": "15-001",
      "city": "Białystok",
      "street": "Lipowa",
      "number": "9",
      "apartment": null
    }
  },
  {
    "model": "backend.address",
    "pk": "6fc6af1b-a67c-589a-9caf-92d17845cea0",
    "fields": {
      "user": 2,
      "address_type": "client",
      "region": "Warmińsko-Mazurskie",
      "zip_code": "10-001",
      "city": "Olsztyn",
      "street": "Wojska Polskiego",
      "number": "8",
      "apartment": "3"
    }
  },
  {
    "model": "backend.address",
    "pk": "6fe20bcd-e0e0-547a-83c0-2246c682725f",
    "fields": {
      "user": 2,
      "address_type": "client",
      "region": "Lubuskie",
      "zip_code": "66-001",
      "city": "Zielona Góra",
      "street": "Łukasiewicza",
      "number": "14",
      "apartment": null
    }
  },
  {
    "model": "backend.address",
    "pk": "7b285c73-6a5c-5bb2-aeae-37a2d6e0e835",
    "fields": {
      "user": 2,
      "address_type": "client",
      "region": "Łódzkie",
      "zip_code": "90-250",
      "city": "Łódź",
      "street": "Wólczańska",
      "number": "7",
      "apartment": "9"
    }
  },
  {
    "model": "backend.address",
    "pk": "cc5b3186-f613-5ce5-b283-28f64e7444e5",
    "fields": {
      "user": 2,
      "address_type": "client",
      "region": "Śląskie",
      "zip_code": "43-100",
      "city": "Tychy",
      "street": "Bielska",
      "number": "44",
      "apartment": "2"
    }
  }
]